GLOBALSTAR M094         
1 39074U 13005C   24316.97495229 -.00000081  00000+0  12757-3 0  9999
2 39074  51.9934 123.4622 0001175 110.9319 249.1673 12.62265341544966
GLOBALSTAR M096         
1 39075U 13005D   24317.30486048 -.00000064  00000+0  22099-3 0  9998
2 39075  52.0050 170.8052 0001246  95.0719 265.0290 12.62264674544259
GLOBALSTAR M078         
1 39076U 13005E   24316.56534993  .00000028  00000+0  73331-3 0  9993
2 39076  51.9873 257.8581 0001599  62.3668 297.7361 12.62267426542645
GLOBALSTAR M095         
1 39077U 13005F   24316.51304092 -.00000090  00000+0  74471-4 0  9991
2 39077  51.9798 255.3256 0001221  75.7777 284.3225 12.62267777542285
GLOBALSTAR M087         
1 52888U 22064A   24316.53597261 -.00000057  00000+0  13600-3 0  9994
2 52888  51.9771  54.5731 0009359  22.7750 337.3565 13.37593585117243
